{"type": "FeatureCollection", "features": [ {"type": "Feature", "properties": {"norad_id": 66958, "name": "CZ-6A R/B", "group": "last-30-days", "lat": 43.37577903556697, "lon": -13.470023767175707, "alt_km": 844.1467570842578, "timestamp": "2025-12-20T07:33:49.516054+00:00", "meta": {"OBJECT_NAME": "CZ-6A R/B", "OBJECT_ID": "2025-287F", "EPOCH": "2025-12-19T22:45:01.819008", "MEAN_MOTION": 13.94920836, "ECCENTRICITY": 0.01072909, "INCLINATION": 86.506, "RA_OF_ASC_NODE": 343.3602, "ARG_OF_PERICENTER": 80.4872, "MEAN_ANOMALY": 280.8408, "EPHEMERIS_TYPE": 0, "CLASSIFICATION_TYPE": "U", "NORAD_CAT_ID": 66958, "ELEMENT_SET_NO": 999, "REV_AT_EPOCH": 154, "BSTAR": 3.2633793e-05, "MEAN_MOTION_DOT": 6.5e-07, "MEAN_MOTION_DDOT": 0}, "tle": {"line1": "1 66958U 25287F   25353.94793772  .00000065  00000+0  32634-4 0  9996", "line2": "2 66958  86.5060 343.3602 0107290  80.4872 280.8408 13.94920836  1545"}}, "geometry": {"type": "Point", "coordinates": [-13.470023767175707, 43.37577903556697]}}, {"type": "Feature", "properties": {"norad_id": 66959, "name": "STARLINK-35887", "group": "last-30-days", "lat": 6.786689758203127, "lon": 128.11727098592897, "alt_km": 322.88918071438, "timestamp": "2025-12-20T07:33:49.516066+00:00", "meta": {"OBJECT_NAME": "STARLINK-35887", "OBJECT_ID": "2025-288A", "EPOCH": "2025-12-19T19:24:18.502272", "MEAN_MOTION": 15.82934679, "ECCENTRICITY": 0.00017974, "INCLINATION": 43.0016, "RA_OF_ASC_NODE": 123.8892, "ARG_OF_PERICENTER": 263.6287, "MEAN_ANOMALY": 96.438, "EPHEMERIS_TYPE": 0, "CLASSIFICATION_TYPE": "U", "NORAD_CAT_ID": 66959, "ELEMENT_SET_NO": 999, "REV_AT_EPOCH": 296, "BSTAR": -0.0025859261, "MEAN_MOTION_DOT": -0.00535482, "MEAN_MOTION_DDOT": 0}, "tle": {"line1": "1 66959U 25288A   25353.80854748 -.00535482  00000+0 -25859-2 0  9991", "line2": "2 66959  43.0016 123.8892 0001797 263.6287  96.4380 15.82934679  2963"}}, "geometry": {"type": "Point", "coordinates": [128.11727098592897, 6.786689758203127]}}, {"type": "Feature", "properties": {"norad_id": 66960, "name": "STARLINK-35879", "group": "last-30-days", "lat": 8.13563392424346, "lon": 129.5985788079866, "alt_km": 322.4919330357152, "timestamp": "2025-12-20T07:33:49.516077+00:00", "meta": {"OBJECT_NAME": "STARLINK-35879", "OBJECT_ID": "2025-288B", "EPOCH": "2025-12-19T19:23:49.280928", "MEAN_MOTION": 15.82959761, "ECCENTRICITY": 0.00016863, "INCLINATION": 43.0016, "RA_OF_ASC_NODE": 123.8855, "ARG_OF_PERICENTER": 267.5526, "MEAN_ANOMALY": 92.5153, "EPHEMERIS_TYPE": 0, "CLASSIFICATION_TYPE": "U", "NORAD_CAT_ID": 66960, "ELEMENT_SET_NO": 999, "REV_AT_EPOCH": 296, "BSTAR": -0.0024691743, "MEAN_MOTION_DOT": -0.00513213, "MEAN_MOTION_DDOT": 0}, "tle": {"line1": "1 66960U 25288B   25353.80820927 -.00513213  00000+0 -24692-2 0  9997", "line2": "2 66960  43.0016 123.8855 0001686 267.5526  92.5153 15.82959761  2964"}}, "geometry": {"type": "Point", "coordinates": [129.5985788079866, 8.13563392424346]}}, {"type": "Feature", "properties": {"norad_id": 66961, "name": "STARLINK-35761", "group": "last-30-days", "lat": 9.800465705968204, "lon": 131.4514400583419, "alt_km": 321.28422501649493, "timestamp": "2025-12-20T07:33:49.516087+00:00", "meta": {"OBJECT_NAME": "STARLINK-35761", "OBJECT_ID": "2025-288C", "EPOCH": "2025-12-19T17:52:25.467744", "MEAN_MOTION": 15.83164451, "ECCENTRICITY": 0.00022323, "INCLINATION": 43.001, "RA_OF_ASC_NODE": 124.2706, "ARG_OF_PERICENTER": 287.5809, "MEAN_ANOMALY": 72.4819, "EPHEMERIS_TYPE": 0, "CLASSIFICATION_TYPE": "U", "NORAD_CAT_ID": 66961, "ELEMENT_SET_NO": 999, "REV_AT_EPOCH": 295, "BSTAR": -0.0022633291, "MEAN_MOTION_DOT": -0.00477103, "MEAN_MOTION_DDOT": 0}, "tle": {"line1": "1 66961U 25288C   25353.74473921 -.00477103  00000+0 -22633-2 0  9999", "line2": "2 66961  43.0010 124.2706 0002232 287.5809  72.4819 15.83164451  2953"}}, "geometry": {"type": "Point", "coordinates": [131.4514400583419, 9.800465705968204]}}, {"type": "Feature", "properties": {"norad_id": 66962, "name": "STARLINK-35874", "group": "last-30-days", "lat": 12.83825644651991, "lon": 134.9125579065996, "alt_km": 318.28410829015775, "timestamp": "2025-12-20T07:33:49.516099+00:00", "meta": {"OBJECT_NAME": "STARLINK-35874", "OBJECT_ID": "2025-288D", "EPOCH": "2025-12-19T16:20:51.302112", "MEAN_MOTION": 15.83646759, "ECCENTRICITY": 0.0002308, "INCLINATION": 43.001, "RA_OF_ASC_NODE": 124.6533, "ARG_OF_PERICENTER": 276.8688, "MEAN_ANOMALY": 83.1922, "EPHEMERIS_TYPE": 0, "CLASSIFICATION_TYPE": "U", "NORAD_CAT_ID": 66962, "ELEMENT_SET_NO": 999, "REV_AT_EPOCH": 294, "BSTAR": 1.1238e-05, "MEAN_MOTION_DOT": 2.007e-05, "MEAN_MOTION_DDOT": 0}, "tle": {"line1": "1 66962U 25288D   25353.68114933  .00002007  00000+0  11238-4 0  9994", "line2": "2 66962  43.0010 124.6533 0002308 276.8688  83.1922 15.83646759  2945"}}, "geometry": {"type": "Point", "coordinates": [134.9125579065996, 12.83825644651991]}}, {"type": "Feature", "properties": {"norad_id": 66963, "name": "STARLINK-36133", "group": "last-30-days", "lat": 12.656242313790607, "lon": 134.70156407685656, "alt_km": 320.9074061449437, "timestamp": "2025-12-20T07:33:49.516109+00:00", "meta": {"OBJECT_NAME": "STARLINK-36133", "OBJECT_ID": "2025-288E", "EPOCH": "2025-12-19T19:22:06.644640", "MEAN_MOTION": 15.8293546, "ECCENTRICITY": 0.00015816, "INCLINATION": 43.0006, "RA_OF_ASC_NODE": 123.8757, "ARG_OF_PERICENTER": 318.4025, "MEAN_ANOMALY": 41.6727, "EPHEMERIS_TYPE": 0, "CLASSIFICATION_TYPE": "U", "NORAD_CAT_ID": 66963, "ELEMENT_SET_NO": 999, "REV_AT_EPOCH": 296, "BSTAR": -0.0023284359, "MEAN_MOTION_DOT": -0.00484968, "MEAN_MOTION_DDOT": 0}, "tle": {"line1": "1 66963U 25288E   25353.80702135 -.00484968  00000+0 -23284-2 0  9990", "line2": "2 66963  43.0006 123.8757 0001581 318.4025  41.6727 15.82935460  2963"}}, "geometry": {"type": "Point", "coordinates": [134.70156407685656, 12.656242313790607]}}, {"type": "Feature", "properties": {"norad_id": 66964, "name": "STARLINK-36104", "group": "last-30-days", "lat": 14.303520185320611, "lon": 136.63069101306488, "alt_km": 321.0783950858249, "timestamp": "2025-12-20T07:33:49.516119+00:00", "meta": {"OBJECT_NAME": "STARLINK-36104", "OBJECT_ID": "2025-288F", "EPOCH": "2025-12-19T17:50:40.690464", "MEAN_MOTION": 15.8312681, "ECCENTRICITY": 0.00025105, "INCLINATION": 43.001, "RA_OF_ASC_NODE": 124.2607, "ARG_OF_PERICENTER": 286.5785, "MEAN_ANOMALY": 73.4811, "EPHEMERIS_TYPE": 0, "CLASSIFICATION_TYPE": "U", "NORAD_CAT_ID": 66964, "ELEMENT_SET_NO": 999, "REV_AT_EPOCH": 295, "BSTAR": -0.0024837553, "MEAN_MOTION_DOT": -0.00520102, "MEAN_MOTION_DDOT": 0}, "tle": {"line1": "1 66964U 25288F   25353.74352651 -.00520102  00000+0 -24838-2 0  9995", "line2": "2 66964  43.0010 124.2607 0002510 286.5785  73.4811 15.83126810  2957"}}, "geometry": {"type": "Point", "coordinates": [136.63069101306488, 14.303520185320611]}}, {"type": "Feature", "properties": {"norad_id": 66965, "name": "STARLINK-36067", "group": "last-30-days", "lat": 15.858375325901434, "lon": 138.4949586403581, "alt_km": 320.02590593926743, "timestamp": "2025-12-20T07:33:49.516129+00:00", "meta": {"OBJECT_NAME": "STARLINK-36067", "OBJECT_ID": "2025-288G", "EPOCH": "2025-12-19T17:50:08.356992", "MEAN_MOTION": 15.8317375, "ECCENTRICITY": 0.00021771, "INCLINATION": 43.0006, "RA_OF_ASC_NODE": 124.2578, "ARG_OF_PERICENTER": 299.0175, "MEAN_ANOMALY": 61.0479, "EPHEMERIS_TYPE": 0, "CLASSIFICATION_TYPE": "U", "NORAD_CAT_ID": 66965, "ELEMENT_SET_NO": 999, "REV_AT_EPOCH": 295, "BSTAR": -0.0019030431, "MEAN_MOTION_DOT": -0.00404706, "MEAN_MOTION_DDOT": 0}, "tle": {"line1": "1 66965U 25288G   25353.74315228 -.00404706  00000+0 -19030-2 0  9994", "line2": "2 66965  43.0006 124.2578 0002177 299.0175  61.0479 15.83173750  2959"}}, "geometry": {"type": "Point", "coordinates": [138.4949586403581, 15.858375325901434]}}, {"type": "Feature", "properties": {"norad_id": 66966, "name": "STARLINK-36139", "group": "last-30-days", "lat": 17.439189245858607, "lon": 140.43982573683766, "alt_km": 319.09144035535337, "timestamp": "2025-12-20T07:33:49.516141+00:00", "meta": {"OBJECT_NAME": "STARLINK-36139", "OBJECT_ID": "2025-288H", "EPOCH": "2025-12-19T19:20:22.308000", "MEAN_MOTION": 15.8303718, "ECCENTRICITY": 0.00028102, "INCLINATION": 43.0012, "RA_OF_ASC_NODE": 123.8666, "ARG_OF_PERICENTER": 313.1242, "MEAN_ANOMALY": 46.9395, "EPHEMERIS_TYPE": 0, "CLASSIFICATION_TYPE": "U", "NORAD_CAT_ID": 66966, "ELEMENT_SET_NO": 999, "REV_AT_EPOCH": 296, "BSTAR": -0.0011013744, "MEAN_MOTION_DOT": -0.00237426, "MEAN_MOTION_DDOT": 0}, "tle": {"line1": "1 66966U 25288H   25353.80581375 -.00237426  00000+0 -11014-2 0  9997", "line2": "2 66966  43.0012 123.8666 0002810 313.1242  46.9395 15.83037180  2963"}}, "geometry": {"type": "Point", "coordinates": [140.43982573683766, 17.439189245858607]}}, {"type": "Feature", "properties": {"norad_id": 66967, "name": "STARLINK-36136", "group": "last-30-days", "lat": 18.798030460472003, "lon": 142.15880896804092, "alt_km": 319.3237438555625, "timestamp": "2025-12-20T07:33:49.516153+00:00", "meta": {"OBJECT_NAME": "STARLINK-36136", "OBJECT_ID": "2025-288J", "EPOCH": "2025-12-19T17:48:57.397536", "MEAN_MOTION": 15.83133906, "ECCENTRICITY": 0.0002653, "INCLINATION": 43.0012, "RA_OF_ASC_NODE": 124.2508, "ARG_OF_PERICENTER": 315.6141, "MEAN_ANOMALY": 44.4518, "EPHEMERIS_TYPE": 0, "CLASSIFICATION_TYPE": "U", "NORAD_CAT_ID": 66967, "ELEMENT_SET_NO": 999, "REV_AT_EPOCH": 295, "BSTAR": -0.0020345365, "MEAN_MOTION_DOT": -0.00430625, "MEAN_MOTION_DDOT": 0}, "tle": {"line1": "1 66967U 25288J   25353.74233099 -.00430625  00000+0 -20345-2 0  9991", "line2": "2 66967  43.0012 124.2508 0002653 315.6141  44.4518 15.83133906  2956"}}, "geometry": {"type": "Point", "coordinates": [142.15880896804092, 18.798030460472003]}}]}